ONEWEB-0429             
1 50500U 21132AH  23059.19165088  .00000423  00000+0  10409-2 0  9990
2 50500  87.9202 214.8766 0001561 101.7833 258.3474 13.18685511 64068
ONEWEB-0429             
1 50500U 21132AH  23059.49515655  .00000426  00000+0  10467-2 0  9999
2 50500  87.9203 214.8164 0001574 101.9454 258.1855 13.18686127 62812
ONEWEB-0429             
1 50500U 21132AH  23059.87453864  .00000476  00000+0  11750-2 0  9995
2 50500  87.9204 214.7411 0001565 101.9077 258.2231 13.18686559 62861
ONEWEB-0429             
1 50500U 21132AH  23060.40567378  .00000487  00000+0  12031-2 0  9997
2 50500  87.9205 214.6358 0001587 102.1107 258.0203 13.18686862 64228
ONEWEB-0429             
1 50500U 21132AH  23060.86093241  .00000208  00000+0  49603-3 0  9997
2 50500  87.9206 214.5455 0001578 102.2778 257.8531 13.18687867 62990
ONEWEB-0429             
1 50500U 21132AH  23061.69557195  .00000064  00000+0  13071-3 0  9992
2 50500  87.9207 214.3800 0001602 102.6569 257.4742 13.18689186 63103
ONEWEB-0429             
1 50500U 21132AH  23062.37843864  .00000940  00000+0  23501-2 0  9990
2 50500  87.9176 214.2423 0001389 121.1576 238.9692 13.18706742 64482
ONEWEB-0429             
1 50500U 21132AH  23062.45431270  .00002246  00000+0  56621-2 0  9993
2 50500  87.9211 214.2296 0001603 100.3514 259.7799 13.18707480 63208
ONEWEB-0429             
1 50500U 21132AH  23062.90958290  .00000269  00000+0  65065-3 0  9995
2 50500  87.9204 214.1392 0001451 105.9528 254.1764 13.18693174 64557
